ION SCV-004             
1 50993U 22002K   26068.68892644  .00006538  00000+0  23198-3 0  9998
2 50993  97.2961 128.2294 0007216   1.6783 358.4480 15.29369331230088
STARLINK-35859          
1 67185U 25303Y   26068.06565655  .00037802  00000+0  13759-2 0  9996
2 67185  43.0016 313.8994 0001659 262.5678  97.4985 15.27586117 12645
